[{"OBJECT_NAME":"STARLINK-6226","OBJECT_ID":"2023-065AT","EPOCH":"2026-03-09T22:00:01.999584","MEAN_MOTION":15.13637525,"ECCENTRICITY":0.00012828,"INCLINATION":42.9994,"RA_OF_ASC_NODE":221.1605,"ARG_OF_PERICENTER":265.0562,"MEAN_ANOMALY":334.2433,"EPHEMERIS_TYPE":0,"CLASSIFICATION_TYPE":"U","NORAD_CAT_ID":56544,"ELEMENT_SET_NO":999,"REV_AT_EPOCH":578,"BSTAR":0.0065294227,"MEAN_MOTION_DOT":0.00121258,"MEAN_MOTION_DDOT":0},{"OBJECT_NAME":"FLAMINGO-1","OBJECT_ID":"2026-004AE","EPOCH":"2026-03-09T22:11:27.220704","MEAN_MOTION":15.17446566,"ECCENTRICITY":0.00039812,"INCLINATION":97.4546,"RA_OF_ASC_NODE":69.3601,"ARG_OF_PERICENTER":332.6166,"MEAN_ANOMALY":27.4857,"EPHEMERIS_TYPE":0,"CLASSIFICATION_TYPE":"U","NORAD_CAT_ID":67391,"ELEMENT_SET_NO":999,"REV_AT_EPOCH":869,"BSTAR":0.00014641045,"MEAN_MOTION_DOT":2.863e-5,"MEAN_MOTION_DDOT":0}]
